[{"OBJECT_NAME":"STARLINK-36530","OBJECT_ID":"2026-012X","EPOCH":"2026-02-23T15:31:36.515424","MEAN_MOTION":15.27771081,"ECCENTRICITY":0.0001083,"INCLINATION":43.0028,"RA_OF_ASC_NODE":33.7481,"ARG_OF_PERICENTER":276.742,"MEAN_ANOMALY":83.3308,"EPHEMERIS_TYPE":0,"CLASSIFICATION_TYPE":"U","NORAD_CAT_ID":67514,"ELEMENT_SET_NO":999,"REV_AT_EPOCH":561,"BSTAR":-0.0082223,"MEAN_MOTION_DOT":-0.00221179,"MEAN_MOTION_DDOT":0},{"OBJECT_NAME":"STARLINK-36543","OBJECT_ID":"2026-012Y","EPOCH":"2026-02-23T16:00:03.000096","MEAN_MOTION":15.28407456,"ECCENTRICITY":0.0001573,"INCLINATION":43.0012,"RA_OF_ASC_NODE":33.6327,"ARG_OF_PERICENTER":245.7413,"MEAN_ANOMALY":224.7383,"EPHEMERIS_TYPE":0,"CLASSIFICATION_TYPE":"U","NORAD_CAT_ID":67515,"ELEMENT_SET_NO":999,"REV_AT_EPOCH":607,"BSTAR":-0.000318,"MEAN_MOTION_DOT":-9.229e-5,"MEAN_MOTION_DDOT":0},{"OBJECT_NAME":"STARLINK-36537","OBJECT_ID":"2026-012Z","EPOCH":"2026-02-23T15:12:56.733408","MEAN_MOTION":15.28437772,"ECCENTRICITY":2.79e-5,"INCLINATION":42.9978,"RA_OF_ASC_NODE":33.6441,"ARG_OF_PERICENTER":48.1109,"MEAN_ANOMALY":311.9767,"EPHEMERIS_TYPE":0,"CLASSIFICATION_TYPE":"U","NORAD_CAT_ID":67516,"ELEMENT_SET_NO":999,"REV_AT_EPOCH":561,"BSTAR":0.001407,"MEAN_MOTION_DOT":0.00039697,"MEAN_MOTION_DDOT":0},{"OBJECT_NAME":"STARLINK-36544","OBJECT_ID":"2026-012AA","EPOCH":"2026-02-23T07:29:43.226304","MEAN_MOTION":15.27611465,"ECCENTRICITY":0.000146,"INCLINATION":43.001,"RA_OF_ASC_NODE":35.532,"ARG_OF_PERICENTER":262.0679,"MEAN_ANOMALY":98.0007,"EPHEMERIS_TYPE":0,"CLASSIFICATION_TYPE":"U","NORAD_CAT_ID":67517,"ELEMENT_SET_NO":999,"REV_AT_EPOCH":556,"BSTAR":0.00091555,"MEAN_MOTION_DOT":0.00025042,"MEAN_MOTION_DDOT":0},{"OBJECT_NAME":"STARLINK-36412","OBJECT_ID":"2026-012AB","EPOCH":"2026-02-23T14:54:36.743040","MEAN_MOTION":15.27573396,"ECCENTRICITY":0.0001195,"INCLINATION":43.0002,"RA_OF_ASC_NODE":33.5482,"ARG_OF_PERICENTER":268.644,"MEAN_ANOMALY":91.4274,"EPHEMERIS_TYPE":0,"CLASSIFICATION_TYPE":"U","NORAD_CAT_ID":67518,"ELEMENT_SET_NO":999,"REV_AT_EPOCH":561,"BSTAR":0.0010926,"MEAN_MOTION_DOT":0.00029919,"MEAN_MOTION_DDOT":0},{"OBJECT_NAME":"STARLINK-36415","OBJECT_ID":"2026-012AC","EPOCH":"2026-02-23T06:58:15.528000","MEAN_MOTION":15.27614304,"ECCENTRICITY":0.0001353,"INCLINATION":43.0006,"RA_OF_ASC_NODE":35.3625,"ARG_OF_PERICENTER":251.8366,"MEAN_ANOMALY":108.2338,"EPHEMERIS_TYPE":0,"CLASSIFICATION_TYPE":"U","NORAD_CAT_ID":67519,"ELEMENT_SET_NO":999,"REV_AT_EPOCH":556,"BSTAR":0.0014518,"MEAN_MOTION_DOT":0.00039946,"MEAN_MOTION_DDOT":0},{"OBJECT_NAME":"STARLINK-36547","OBJECT_ID":"2026-012AD","EPOCH":"2026-02-23T15:00:09.954144","MEAN_MOTION":15.27580144,"ECCENTRICITY":0.0001064,"INCLINATION":42.9989,"RA_OF_ASC_NODE":33.5769,"ARG_OF_PERICENTER":285.2391,"MEAN_ANOMALY":74.8343,"EPHEMERIS_TYPE":0,"CLASSIFICATION_TYPE":"U","NORAD_CAT_ID":67520,"ELEMENT_SET_NO":999,"REV_AT_EPOCH":561,"BSTAR":0.0011529,"MEAN_MOTION_DOT":0.00031598,"MEAN_MOTION_DDOT":0},{"OBJECT_NAME":"STARLINK-36444","OBJECT_ID":"2026-012AE","EPOCH":"2026-02-23T20:00:01.999008","MEAN_MOTION":15.27538642,"ECCENTRICITY":0.0001434,"INCLINATION":43.0008,"RA_OF_ASC_NODE":32.455,"ARG_OF_PERICENTER":276.6665,"MEAN_ANOMALY":128.7224,"EPHEMERIS_TYPE":0,"CLASSIFICATION_TYPE":"U","NORAD_CAT_ID":67521,"ELEMENT_SET_NO":999,"REV_AT_EPOCH":598,"BSTAR":0.0018619,"MEAN_MOTION_DOT":0.00051265,"MEAN_MOTION_DDOT":0},{"OBJECT_NAME":"STARLINK-36587","OBJECT_ID":"2026-014A","EPOCH":"2026-02-23T18:06:18.941760","MEAN_MOTION":15.75274483,"ECCENTRICITY":0.0001484,"INCLINATION":97.2835,"RA_OF_ASC_NODE":299.0623,"ARG_OF_PERICENTER":117.94,"MEAN_ANOMALY":242.2015,"EPHEMERIS_TYPE":0,"CLASSIFICATION_TYPE":"U","NORAD_CAT_ID":67532,"ELEMENT_SET_NO":999,"REV_AT_EPOCH":638,"BSTAR":0.0011904,"MEAN_MOTION_DOT":0.00181925,"MEAN_MOTION_DDOT":0},{"OBJECT_NAME":"STARLINK-36417","OBJECT_ID":"2026-014B","EPOCH":"2026-02-23T14:57:45.841536","MEAN_MOTION":15.75303191,"ECCENTRICITY":0.000141,"INCLINATION":97.2834,"RA_OF_ASC_NODE":298.7792,"ARG_OF_PERICENTER":113.6528,"MEAN_ANOMALY":246.4886,"EPHEMERIS_TYPE":0,"CLASSIFICATION_TYPE":"U","NORAD_CAT_ID":67533,"ELEMENT_SET_NO":999,"REV_AT_EPOCH":635,"BSTAR":0.0023139,"MEAN_MOTION_DOT":0.00361808,"MEAN_MOTION_DDOT":0},{"OBJECT_NAME":"STARLINK-36576","OBJECT_ID":"2026-014C","EPOCH":"2026-02-23T12:34:27.376608","MEAN_MOTION":15.75217119,"ECCENTRICITY":0.0002431,"INCLINATION":97.2821,"RA_OF_ASC_NODE":298.763,"ARG_OF_PERICENTER":82.556,"MEAN_ANOMALY":277.5981,"EPHEMERIS_TYPE":0,"CLASSIFICATION_TYPE":"U","NORAD_CAT_ID":67534,"ELEMENT_SET_NO":999,"REV_AT_EPOCH":634,"BSTAR":0.001310533,"MEAN_MOTION_DOT":0.00200242,"MEAN_MOTION_DDOT":0},{"OBJECT_NAME":"STARLINK-36574","OBJECT_ID":"2026-014D","EPOCH":"2026-02-23T10:46:12.140832","MEAN_MOTION":15.75204048,"ECCENTRICITY":0.00024002,"INCLINATION":97.284,"RA_OF_ASC_NODE":298.71,"ARG_OF_PERICENTER":124.5336,"MEAN_ANOMALY":235.6156,"EPHEMERIS_TYPE":0,"CLASSIFICATION_TYPE":"U","NORAD_CAT_ID":67535,"ELEMENT_SET_NO":999,"REV_AT_EPOCH":633,"BSTAR":0.0016319473,"MEAN_MOTION_DOT":0.0025073,"MEAN_MOTION_DDOT":0},{"OBJECT_NAME":"STARLINK-36572","OBJECT_ID":"2026-014E","EPOCH":"2026-02-23T05:29:03.898176","MEAN_MOTION":15.75150706,"ECCENTRICITY":0.00023752,"INCLINATION":97.2836,"RA_OF_ASC_NODE":298.3968,"ARG_OF_PERICENTER":69.1769,"MEAN_ANOMALY":290.975,"EPHEMERIS_TYPE":0,"CLASSIFICATION_TYPE":"U","NORAD_CAT_ID":67536,"ELEMENT_SET_NO":999,"REV_AT_EPOCH":629,"BSTAR":0.0015774267,"MEAN_MOTION_DOT":0.00241529,"MEAN_MOTION_DDOT":0},{"OBJECT_NAME":"STARLINK-36561","OBJECT_ID":"2026-014F","EPOCH":"2026-02-23T14:46:34.955904","MEAN_MOTION":15.75279841,"ECCENTRICITY":0.000242,"INCLINATION":97.2846,"RA_OF_ASC_NODE":298.7878,"ARG_OF_PERICENTER":129.8229,"MEAN_ANOMALY":230.325,"EPHEMERIS_TYPE":0,"CLASSIFICATION_TYPE":"U","NORAD_CAT_ID":67537,"ELEMENT_SET_NO":999,"REV_AT_EPOCH":635,"BSTAR":0.0021224,"MEAN_MOTION_DOT":0.00330286,"MEAN_MOTION_DDOT":0},{"OBJECT_NAME":"STARLINK-36397","OBJECT_ID":"2026-014G","EPOCH":"2026-02-23T10:17:44.135520","MEAN_MOTION":15.7522645,"ECCENTRICITY":0.00019236,"INCLINATION":97.2839,"RA_OF_ASC_NODE":298.5829,"ARG_OF_PERICENTER":90.3149,"MEAN_ANOMALY":269.8336,"EPHEMERIS_TYPE":0,"CLASSIFICATION_TYPE":"U","NORAD_CAT_ID":67538,"ELEMENT_SET_NO":999,"REV_AT_EPOCH":632,"BSTAR":0.0018603002,"MEAN_MOTION_DOT":0.00287343,"MEAN_MOTION_DDOT":0},{"OBJECT_NAME":"STARLINK-36573","OBJECT_ID":"2026-014H","EPOCH":"2026-02-23T04:45:51.771168","MEAN_MOTION":15.75195923,"ECCENTRICITY":0.00015343,"INCLINATION":97.284,"RA_OF_ASC_NODE":298.4375,"ARG_OF_PERICENTER":103.7286,"MEAN_ANOMALY":256.415,"EPHEMERIS_TYPE":0,"CLASSIFICATION_TYPE":"U","NORAD_CAT_ID":67539,"ELEMENT_SET_NO":999,"REV_AT_EPOCH":629,"BSTAR":0.00077090719,"MEAN_MOTION_DOT":0.00116467,"MEAN_MOTION_DDOT":0},{"OBJECT_NAME":"STARLINK-36585","OBJECT_ID":"2026-014J","EPOCH":"2026-02-23T14:40:29.440704","MEAN_MOTION":15.7527608,"ECCENTRICITY":0.0003473,"INCLINATION":97.2851,"RA_OF_ASC_NODE":298.7925,"ARG_OF_PERICENTER":76.2852,"MEAN_ANOMALY":283.88,"EPHEMERIS_TYPE":0,"CLASSIFICATION_TYPE":"U","NORAD_CAT_ID":67540,"ELEMENT_SET_NO":999,"REV_AT_EPOCH":635,"BSTAR":0.0018963,"MEAN_MOTION_DOT":0.00293797,"MEAN_MOTION_DDOT":0}]
