STARLINK-36530          
1 67514U 26012X   26054.64695041 -.00221179  00000+0 -82223-2 0  9998
2 67514  43.0028  33.7481 0001083 276.7420  83.3308 15.27771081  5614
STARLINK-36543          
1 67515U 26012Y   26054.66670139 -.00009229  00000+0 -31800-3 0  9998
2 67515  43.0012  33.6327 0001573 245.7413 224.7383 15.28407456  6076
STARLINK-36537          
1 67516U 26012Z   26054.63398997  .00039697  00000+0  14070-2 0  9994
2 67516  42.9978  33.6441 0000279  48.1109 311.9767 15.28437772  5610
STARLINK-36544          
1 67517U 26012AA  26054.31230586  .00025042  00000+0  91555-3 0  9992
2 67517  43.0010  35.5320 0001460 262.0679  98.0007 15.27611465  5565
STARLINK-36412          
1 67518U 26012AB  26054.62125860  .00029919  00000+0  10926-2 0  9994
2 67518  43.0002  33.5482 0001195 268.6440  91.4274 15.27573396  5616
STARLINK-36415          
1 67519U 26012AC  26054.29045750  .00039946  00000+0  14518-2 0  9999
2 67519  43.0006  35.3625 0001353 251.8366 108.2338 15.27614304  5564
STARLINK-36547          
1 67520U 26012AD  26054.62511521  .00031598  00000+0  11529-2 0  9996
2 67520  42.9989  33.5769 0001064 285.2391  74.8343 15.27580144  5615
STARLINK-36444          
1 67521U 26012AE  26054.83335647  .00051265  00000+0  18619-2 0  9993
2 67521  43.0008  32.4550 0001434 276.6665 128.7224 15.27538642  5988
STARLINK-36587          
1 67532U 26014A   26054.75438590  .00181925  00000+0  11904-2 0  9996
2 67532  97.2835 299.0623 0001484 117.9400 242.2015 15.75274483  6388
STARLINK-36417          
1 67533U 26014B   26054.62344724  .00361808  00000+0  23139-2 0  9991
2 67533  97.2834 298.7792 0001410 113.6528 246.4886 15.75303191  6352
STARLINK-36576          
1 67534U 26014C   26054.52392797  .00200242  00000+0  13105-2 0  9990
2 67534  97.2821 298.7630 0002431  82.5560 277.5981 15.75217119  6348
STARLINK-36574          
1 67535U 26014D   26054.44875163  .00250730  00000+0  16319-2 0  9992
2 67535  97.2840 298.7100 0002400 124.5336 235.6156 15.75204048  6331
STARLINK-36572          
1 67536U 26014E   26054.22851734  .00241529  00000+0  15774-2 0  9997
2 67536  97.2836 298.3968 0002375  69.1769 290.9750 15.75150706  6290
STARLINK-36561          
1 67537U 26014F   26054.61568236  .00330286  00000+0  21224-2 0  9999
2 67537  97.2846 298.7878 0002420 129.8229 230.3250 15.75279841  6354
STARLINK-36397          
1 67538U 26014G   26054.42898305  .00287343  00000+0  18603-2 0  9994
2 67538  97.2839 298.5829 0001923  90.3149 269.8336 15.75226450  6328
STARLINK-36573          
1 67539U 26014H   26054.19851587  .00116467  00000+0  77091-3 0  9995
2 67539  97.2840 298.4375 0001534 103.7286 256.4150 15.75195923  6297
STARLINK-36585          
1 67540U 26014J   26054.61145186  .00293797  00000+0  18963-2 0  9999
2 67540  97.2851 298.7925 0003473  76.2852 283.8800 15.75276080  6359
